GLOBALSTAR M080         
1 38041U 11080B   26199.26912443 -.00000082  00000+0  12420-3 0  9996
2 38041  52.0065 284.3895 0000297  76.7380 295.7039 12.62257576672816
GLOBALSTAR M082         
1 38042U 11080C   26199.04545929 -.00000091  00000+0  68947-4 0  9990
2 38042  52.0058 240.5740 0000186  73.3518 292.2408 12.62264345673494
GLOBALSTAR M092         
1 38043U 11080D   26198.81655208 -.00000082  00000+0  12038-3 0  9996
2 38043  52.0105 331.6680 0000760 106.5467  57.7424 12.62267883671910
GLOBALSTAR M090         
1 38044U 11080E   26199.07465207 -.00000088  00000+0  87200-4 0  9994
2 38044  52.0101 234.4507 0000410  87.8293 289.3155 12.62269655673617
GLOBALSTAR M086         
1 38045U 11080F   26198.81300501 -.00000101  00000+0  16479-4 0  9997
2 38045  51.9873 235.1255 0001467 115.5282  55.9605 12.62287873673529
GLOBALSTAR M097         
1 39072U 13005A   26199.12384533 -.00000109  00000+0 -31141-4 0  9991
2 39072  52.0029 149.1607 0000492  42.4346 317.6559 12.62271326620812
GLOBALSTAR M093         
1 39073U 13005B   26199.01790756 -.00000099  00000+0  27755-4 0  9991
2 39073  52.0095 142.8422 0000723  48.9945 311.0984 12.62266351620759
GLOBALSTAR M094         
1 39074U 13005C   26199.01776544 -.00000091  00000+0  69705-4 0  9994
2 39074  51.9968  56.9294 0001026  67.0053 293.0922 12.62264210622360
GLOBALSTAR M096         
1 39075U 13005D   26199.11047475 -.00000082  00000+0  12019-3 0  9995
2 39075  52.0073 105.4727 0000803  47.7293 312.3642 12.62265761621291
GLOBALSTAR M078         
1 39076U 13005E   26199.16279582 -.00000123  00000+0 -10464-3 0  9996
2 39076  51.9845 189.2810 0000905 346.9844  13.0999 12.62260116619925
GLOBALSTAR M095         
1 39077U 13005F   26199.11028501 -.00000124  00000+0 -11243-3 0  9992
2 39077  52.0053 187.0882 0000524  18.1346 341.9539 12.62264097619774
GLOBALSTAR M087         
1 52888U 22064A   26199.28175225 -.00000086  00000+0  99252-4 0  9999
2 52888  52.0017 327.7875 0000891  88.0033 272.0936 12.62269417195067
