{"fetched_at":"2026-07-18T17:29:26.130Z","source":"https://celestrak.org/NORAD/elements/gp.php?GROUP=globalstar&FORMAT=JSON","constellation":"globalstar","records":[{"OBJECT_NAME":"GLOBALSTAR M080","OBJECT_ID":"2011-080B","EPOCH":"2026-07-18T06:27:32.350752","CLASSIFICATION_TYPE":"U","MEAN_MOTION":12.62257576,"ECCENTRICITY":0.00002974,"INCLINATION":52.0065,"RA_OF_ASC_NODE":284.3895,"ARG_OF_PERICENTER":76.738,"MEAN_ANOMALY":295.7039,"EPHEMERIS_TYPE":0,"NORAD_CAT_ID":38041,"ELEMENT_SET_NO":999,"REV_AT_EPOCH":67281,"BSTAR":0.00012419676,"MEAN_MOTION_DOT":-8.2e-7,"MEAN_MOTION_DDOT":0},{"OBJECT_NAME":"GLOBALSTAR M082","OBJECT_ID":"2011-080C","EPOCH":"2026-07-18T01:05:27.682656","CLASSIFICATION_TYPE":"U","MEAN_MOTION":12.62264345,"ECCENTRICITY":0.00001862,"INCLINATION":52.0058,"RA_OF_ASC_NODE":240.574,"ARG_OF_PERICENTER":73.3518,"MEAN_ANOMALY":292.2408,"EPHEMERIS_TYPE":0,"NORAD_CAT_ID":38042,"ELEMENT_SET_NO":999,"REV_AT_EPOCH":67349,"BSTAR":0.000068947175,"MEAN_MOTION_DOT":-9.1e-7,"MEAN_MOTION_DDOT":0},{"OBJECT_NAME":"GLOBALSTAR M092","OBJECT_ID":"2011-080D","EPOCH":"2026-07-17T19:35:50.099712","CLASSIFICATION_TYPE":"U","MEAN_MOTION":12.62267883,"ECCENTRICITY":0.00007609,"INCLINATION":52.0105,"RA_OF_ASC_NODE":331.668,"ARG_OF_PERICENTER":106.5467,"MEAN_ANOMALY":57.7424,"EPHEMERIS_TYPE":0,"NORAD_CAT_ID":38043,"ELEMENT_SET_NO":999,"REV_AT_EPOCH":67191,"BSTAR":0.00012038063,"MEAN_MOTION_DOT":-8.2e-7,"MEAN_MOTION_DDOT":0},{"OBJECT_NAME":"GLOBALSTAR M090","OBJECT_ID":"2011-080E","EPOCH":"2026-07-18T01:47:29.938848","CLASSIFICATION_TYPE":"U","MEAN_MOTION":12.62269655,"ECCENTRICITY":0.00004101,"INCLINATION":52.0101,"RA_OF_ASC_NODE":234.4507,"ARG_OF_PERICENTER":87.8293,"MEAN_ANOMALY":289.3155,"EPHEMERIS_TYPE":0,"NORAD_CAT_ID":38044,"ELEMENT_SET_NO":999,"REV_AT_EPOCH":67361,"BSTAR":0.000087200377,"MEAN_MOTION_DOT":-8.8e-7,"MEAN_MOTION_DDOT":0},{"OBJECT_NAME":"GLOBALSTAR M086","OBJECT_ID":"2011-080F","EPOCH":"2026-07-17T19:30:43.632864","CLASSIFICATION_TYPE":"U","MEAN_MOTION":12.62287873,"ECCENTRICITY":0.00014679,"INCLINATION":51.9873,"RA_OF_ASC_NODE":235.1255,"ARG_OF_PERICENTER":115.5282,"MEAN_ANOMALY":55.9605,"EPHEMERIS_TYPE":0,"NORAD_CAT_ID":38045,"ELEMENT_SET_NO":999,"REV_AT_EPOCH":67352,"BSTAR":0.000016478581,"MEAN_MOTION_DOT":-0.00000101,"MEAN_MOTION_DDOT":0},{"OBJECT_NAME":"GLOBALSTAR M097","OBJECT_ID":"2013-005A","EPOCH":"2026-07-18T02:58:20.236512","CLASSIFICATION_TYPE":"U","MEAN_MOTION":12.62271326,"ECCENTRICITY":0.00004924,"INCLINATION":52.0029,"RA_OF_ASC_NODE":149.1607,"ARG_OF_PERICENTER":42.4346,"MEAN_ANOMALY":317.6559,"EPHEMERIS_TYPE":0,"NORAD_CAT_ID":39072,"ELEMENT_SET_NO":999,"REV_AT_EPOCH":62081,"BSTAR":-0.000031141183,"MEAN_MOTION_DOT":-0.00000109,"MEAN_MOTION_DDOT":0},{"OBJECT_NAME":"GLOBALSTAR M093","OBJECT_ID":"2013-005B","EPOCH":"2026-07-18T00:25:47.213184","CLASSIFICATION_TYPE":"U","MEAN_MOTION":12.62266351,"ECCENTRICITY":0.00007231,"INCLINATION":52.0095,"RA_OF_ASC_NODE":142.8422,"ARG_OF_PERICENTER":48.9945,"MEAN_ANOMALY":311.0984,"EPHEMERIS_TYPE":0,"NORAD_CAT_ID":39073,"ELEMENT_SET_NO":999,"REV_AT_EPOCH":62075,"BSTAR":0.000027754934,"MEAN_MOTION_DOT":-9.9e-7,"MEAN_MOTION_DDOT":0},{"OBJECT_NAME":"GLOBALSTAR M094","OBJECT_ID":"2013-005C","EPOCH":"2026-07-18T00:25:34.934016","CLASSIFICATION_TYPE":"U","MEAN_MOTION":12.6226421,"ECCENTRICITY":0.00010266,"INCLINATION":51.9968,"RA_OF_ASC_NODE":56.9294,"ARG_OF_PERICENTER":67.0053,"MEAN_ANOMALY":293.0922,"EPHEMERIS_TYPE":0,"NORAD_CAT_ID":39074,"ELEMENT_SET_NO":999,"REV_AT_EPOCH":62236,"BSTAR":0.000069705068,"MEAN_MOTION_DOT":-9.1e-7,"MEAN_MOTION_DDOT":0},{"OBJECT_NAME":"GLOBALSTAR M096","OBJECT_ID":"2013-005D","EPOCH":"2026-07-18T02:39:05.018400","CLASSIFICATION_TYPE":"U","MEAN_MOTION":12.62265761,"ECCENTRICITY":0.00008037,"INCLINATION":52.0073,"RA_OF_ASC_NODE":105.4727,"ARG_OF_PERICENTER":47.7293,"MEAN_ANOMALY":312.3642,"EPHEMERIS_TYPE":0,"NORAD_CAT_ID":39075,"ELEMENT_SET_NO":999,"REV_AT_EPOCH":62129,"BSTAR":0.00012019431,"MEAN_MOTION_DOT":-8.2e-7,"MEAN_MOTION_DDOT":0},{"OBJECT_NAME":"GLOBALSTAR M078","OBJECT_ID":"2013-005E","EPOCH":"2026-07-18T03:54:25.558848","CLASSIFICATION_TYPE":"U","MEAN_MOTION":12.62260116,"ECCENTRICITY":0.00009057,"INCLINATION":51.9845,"RA_OF_ASC_NODE":189.281,"ARG_OF_PERICENTER":346.9844,"MEAN_ANOMALY":13.0999,"EPHEMERIS_TYPE":0,"NORAD_CAT_ID":39076,"ELEMENT_SET_NO":999,"REV_AT_EPOCH":61992,"BSTAR":-0.00010464476,"MEAN_MOTION_DOT":-0.00000123,"MEAN_MOTION_DDOT":0},{"OBJECT_NAME":"GLOBALSTAR M095","OBJECT_ID":"2013-005F","EPOCH":"2026-07-18T02:38:48.624864","CLASSIFICATION_TYPE":"U","MEAN_MOTION":12.62264097,"ECCENTRICITY":0.00005245,"INCLINATION":52.0053,"RA_OF_ASC_NODE":187.0882,"ARG_OF_PERICENTER":18.1346,"MEAN_ANOMALY":341.9539,"EPHEMERIS_TYPE":0,"NORAD_CAT_ID":39077,"ELEMENT_SET_NO":999,"REV_AT_EPOCH":61977,"BSTAR":-0.00011243382,"MEAN_MOTION_DOT":-0.00000124,"MEAN_MOTION_DDOT":0},{"OBJECT_NAME":"GLOBALSTAR M087","OBJECT_ID":"2022-064A","EPOCH":"2026-07-18T06:45:43.394400","CLASSIFICATION_TYPE":"U","MEAN_MOTION":12.62269417,"ECCENTRICITY":0.00008919,"INCLINATION":52.0017,"RA_OF_ASC_NODE":327.7875,"ARG_OF_PERICENTER":88.0033,"MEAN_ANOMALY":272.0936,"EPHEMERIS_TYPE":0,"NORAD_CAT_ID":52888,"ELEMENT_SET_NO":999,"REV_AT_EPOCH":19506,"BSTAR":0.000099251958,"MEAN_MOTION_DOT":-8.6e-7,"MEAN_MOTION_DDOT":0}]}
